ONEWEB-0240             
1 48785U 21045U   23344.26884109  .00000187  00000+0  46389-3 0  9996
2 48785  87.9008  82.3076 0001834 122.0057 238.1251 13.15547078123453
ONEWEB-0246             
1 48786U 21045V   23344.79642064 -.00003205  00000+0 -85491-2 0  9999
2 48786  87.9016  82.2019 0002664 116.4090 243.7313 13.15567444124513
ONEWEB-0210             
1 48787U 21045W   23344.77107018 -.00000107  00000+0 -31762-3 0  9994
2 48787  87.9003  82.2166 0000930 117.6798 242.4427 13.15550439124568
ONEWEB-0214             
1 48788U 21045X   23344.78058566 -.00000008  00000+0 -54386-4 0  9997
2 48788  87.9003  82.2031 0000903 110.5162 249.6065 13.15548791124528
ONEWEB-0221             
1 48789U 21045Y   23344.78691597  .00000010  00000+0 -65368-5 0  9990
2 48789  87.9006  82.2149 0001677 116.2435 243.8868 13.15550439124638
ONEWEB-0213             
1 48790U 21045Z   23344.24342542  .00000050  00000+0  98653-4 0  9991
2 48790  87.9017  82.3418 0001462 120.2984 239.8291 13.15549785123487
ONEWEB-0212             
1 48791U 21045AA  23341.56349490  .00058249  00000+0  15266+0 0  9990
2 48791  87.9003  82.8551 0002546 100.3030 259.8388 13.16016667123120
ONEWEB-0227             
1 48792U 21045AB  23344.82811677 -.00000009  00000+0 -56746-4 0  9990
2 48792  87.9008  82.2197 0001760 112.7038 247.4278 13.15552078124636
